[Satellite]
VERSION=1.1
NAME=NOAA 14 [-]
NICKNAME=NOAA 14 [-]
TLE1=1 23455U 94089A   17186.22054022 -.00000036  00000-0  34608-5 0  9995
TLE2=2 23455  98.6860 260.6788 0010592 103.3365 256.8990 14.14099788161146
